{"type": "FeatureCollection", "features": [ {"type": "Feature", "properties": {"norad_id": 40118, "name": "GAOFEN-2", "group": "resource", "lat": 20.66635449895266, "lon": 56.53258269811001, "alt_km": 623.7620251679646, "timestamp": "2025-12-26T09:30:53.285008+00:00", "meta": {"OBJECT_NAME": "GAOFEN-2", "OBJECT_ID": "2014-049A", "EPOCH": "2025-12-26T04:33:18.372672", "MEAN_MOTION": 14.80630231, "ECCENTRICITY": 0.0008697, "INCLINATION": 98.0362, "RA_OF_ASC_NODE": 59.3804, "ARG_OF_PERICENTER": 75.9587, "MEAN_ANOMALY": 284.2592, "EPHEMERIS_TYPE": 0, "CLASSIFICATION_TYPE": "U", "NORAD_CAT_ID": 40118, "ELEMENT_SET_NO": 999, "REV_AT_EPOCH": 61363, "BSTAR": 0.00010447, "MEAN_MOTION_DOT": 7.49e-06, "MEAN_MOTION_DDOT": 0}, "tle": {"line1": "1 40118U 14049A   25360.18979598  .00000749  00000+0  10447-3 0  9992", "line2": "2 40118  98.0362  59.3804 0008697  75.9587 284.2592 14.80630231613633"}}, "geometry": {"type": "Point", "coordinates": [56.53258269811001, 20.66635449895266]}}, {"type": "Feature", "properties": {"norad_id": 40143, "name": "YAOGAN-21", "group": "resource", "lat": -58.79447689873808, "lon": 55.11547784505199, "alt_km": 498.25694852215474, "timestamp": "2025-12-26T09:30:53.285018+00:00", "meta": {"OBJECT_NAME": "YAOGAN-21", "OBJECT_ID": "2014-053A", "EPOCH": "2025-12-26T05:02:50.373600", "MEAN_MOTION": 15.23809273, "ECCENTRICITY": 0.0008381, "INCLINATION": 97.1735, "RA_OF_ASC_NODE": 42.937, "ARG_OF_PERICENTER": 356.7167, "MEAN_ANOMALY": 3.4015, "EPHEMERIS_TYPE": 0, "CLASSIFICATION_TYPE": "U", "NORAD_CAT_ID": 40143, "ELEMENT_SET_NO": 999, "REV_AT_EPOCH": 62859, "BSTAR": 0.00023565, "MEAN_MOTION_DOT": 5.613e-05, "MEAN_MOTION_DDOT": 0}, "tle": {"line1": "1 40143U 14053A   25360.21030525  .00005613  00000+0  23565-3 0  9997", "line2": "2 40143  97.1735  42.9370 0008381 356.7167   3.4015 15.23809273628599"}}, "geometry": {"type": "Point", "coordinates": [55.11547784505199, -58.79447689873808]}}, {"type": "Feature", "properties": {"norad_id": 40275, "name": "YAOGAN-22", "group": "resource", "lat": -3.898261682704121, "lon": 144.75033974894325, "alt_km": 1208.636336703411, "timestamp": "2025-12-26T09:30:53.285029+00:00", "meta": {"OBJECT_NAME": "YAOGAN-22", "OBJECT_ID": "2014-063A", "EPOCH": "2025-12-26T04:03:33.213888", "MEAN_MOTION": 13.1552327, "ECCENTRICITY": 0.0006106, "INCLINATION": 100.7431, "RA_OF_ASC_NODE": 143.7787, "ARG_OF_PERICENTER": 216.1236, "MEAN_ANOMALY": 143.9464, "EPHEMERIS_TYPE": 0, "CLASSIFICATION_TYPE": "U", "NORAD_CAT_ID": 40275, "ELEMENT_SET_NO": 999, "REV_AT_EPOCH": 53706, "BSTAR": 4.558e-05, "MEAN_MOTION_DOT": -2.9e-07, "MEAN_MOTION_DDOT": 0}, "tle": {"line1": "1 40275U 14063A   25360.16913442 -.00000029  00000+0  45580-4 0  9995", "line2": "2 40275 100.7431 143.7787 0006106 216.1236 143.9464 13.15523270537068"}}, "geometry": {"type": "Point", "coordinates": [144.75033974894325, -3.898261682704121]}}, {"type": "Feature", "properties": {"norad_id": 40298, "name": "ASNARO", "group": "resource", "lat": 32.69796136772801, "lon": -99.22881293423629, "alt_km": 502.7395456573604, "timestamp": "2025-12-26T09:30:53.285039+00:00", "meta": {"OBJECT_NAME": "ASNARO", "OBJECT_ID": "2014-070A", "EPOCH": "2025-12-26T04:07:49.833120", "MEAN_MOTION": 15.19772206, "ECCENTRICITY": 0.0005675, "INCLINATION": 97.3632, "RA_OF_ASC_NODE": 75.7906, "ARG_OF_PERICENTER": 86.5407, "MEAN_ANOMALY": 273.6477, "EPHEMERIS_TYPE": 0, "CLASSIFICATION_TYPE": "U", "NORAD_CAT_ID": 40298, "ELEMENT_SET_NO": 999, "REV_AT_EPOCH": 61773, "BSTAR": 0.00067075, "MEAN_MOTION_DOT": 0.00014307, "MEAN_MOTION_DDOT": 0}, "tle": {"line1": "1 40298U 14070A   25360.17210455  .00014307  00000+0  67075-3 0  9998", "line2": "2 40298  97.3632  75.7906 0005675  86.5407 273.6477 15.19772206617732"}}, "geometry": {"type": "Point", "coordinates": [-99.22881293423629, 32.69796136772801]}}, {"type": "Feature", "properties": {"norad_id": 40310, "name": "YAOGAN-24", "group": "resource", "lat": 31.990600083372268, "lon": -43.31816311751597, "alt_km": 632.6773503913882, "timestamp": "2025-12-26T09:30:53.285050+00:00", "meta": {"OBJECT_NAME": "YAOGAN-24", "OBJECT_ID": "2014-072A", "EPOCH": "2025-12-26T03:58:10.805376", "MEAN_MOTION": 14.76203315, "ECCENTRICITY": 0.0015221, "INCLINATION": 98.1232, "RA_OF_ASC_NODE": 131.331, "ARG_OF_PERICENTER": 97.8985, "MEAN_ANOMALY": 262.3952, "EPHEMERIS_TYPE": 0, "CLASSIFICATION_TYPE": "U", "NORAD_CAT_ID": 40310, "ELEMENT_SET_NO": 999, "REV_AT_EPOCH": 59819, "BSTAR": 0.00011876, "MEAN_MOTION_DOT": 7.7e-06, "MEAN_MOTION_DDOT": 0}, "tle": {"line1": "1 40310U 14072A   25360.16540284  .00000770  00000+0  11876-3 0  9997", "line2": "2 40310  98.1232 131.3310 0015221  97.8985 262.3952 14.76203315598197"}}, "geometry": {"type": "Point", "coordinates": [-43.31816311751597, 31.990600083372268]}}, {"type": "Feature", "properties": {"norad_id": 40336, "name": "CBERS 4", "group": "resource", "lat": 50.55036592909495, "lon": 47.69002055033129, "alt_km": 767.7431895411801, "timestamp": "2025-12-26T09:30:53.285060+00:00", "meta": {"OBJECT_NAME": "CBERS 4", "OBJECT_ID": "2014-079A", "EPOCH": "2025-12-26T04:15:29.488032", "MEAN_MOTION": 14.35522772, "ECCENTRICITY": 0.0001877, "INCLINATION": 98.3285, "RA_OF_ASC_NODE": 57.7331, "ARG_OF_PERICENTER": 98.5285, "MEAN_ANOMALY": 261.6114, "EPHEMERIS_TYPE": 0, "CLASSIFICATION_TYPE": "U", "NORAD_CAT_ID": 40336, "ELEMENT_SET_NO": 999, "REV_AT_EPOCH": 57913, "BSTAR": 4.1152e-05, "MEAN_MOTION_DOT": 7.6e-07, "MEAN_MOTION_DDOT": 0}, "tle": {"line1": "1 40336U 14079A   25360.17742463  .00000076  00000+0  41152-4 0  9996", "line2": "2 40336  98.3285  57.7331 0001877  98.5285 261.6114 14.35522772579133"}}, "geometry": {"type": "Point", "coordinates": [47.69002055033129, 50.55036592909495]}}, {"type": "Feature", "properties": {"norad_id": 40362, "name": "YAOGAN-26", "group": "resource", "lat": 69.24567371064308, "lon": -18.516545902004534, "alt_km": 439.7315077640442, "timestamp": "2025-12-26T09:30:53.285071+00:00", "meta": {"OBJECT_NAME": "YAOGAN-26", "OBJECT_ID": "2014-088A", "EPOCH": "2025-12-26T04:31:52.143744", "MEAN_MOTION": 15.39784198, "ECCENTRICITY": 0.0004246, "INCLINATION": 97.0649, "RA_OF_ASC_NODE": 0.3866, "ARG_OF_PERICENTER": 347.0621, "MEAN_ANOMALY": 13.0516, "EPHEMERIS_TYPE": 0, "CLASSIFICATION_TYPE": "U", "NORAD_CAT_ID": 40362, "ELEMENT_SET_NO": 999, "REV_AT_EPOCH": 61101, "BSTAR": 0.00074153, "MEAN_MOTION_DOT": 0.0002938, "MEAN_MOTION_DDOT": 0}, "tle": {"line1": "1 40362U 14088A   25360.18879796  .00029380  00000+0  74153-3 0  9991", "line2": "2 40362  97.0649   0.3866 0004246 347.0621  13.0516 15.39784198611014"}}, "geometry": {"type": "Point", "coordinates": [-18.516545902004534, 69.24567371064308]}}, {"type": "Feature", "properties": {"norad_id": 40376, "name": "SMAP", "group": "resource", "lat": -0.6092082934014531, "lon": -175.16353684616308, "alt_km": 685.390358332329, "timestamp": "2025-12-26T09:30:53.285081+00:00", "meta": {"OBJECT_NAME": "SMAP", "OBJECT_ID": "2015-003A", "EPOCH": "2025-12-26T03:46:10.515360", "MEAN_MOTION": 14.63361123, "ECCENTRICITY": 0.0001235, "INCLINATION": 98.1291, "RA_OF_ASC_NODE": 4.6876, "ARG_OF_PERICENTER": 92.6734, "MEAN_ANOMALY": 267.4609, "EPHEMERIS_TYPE": 0, "CLASSIFICATION_TYPE": "U", "NORAD_CAT_ID": 40376, "ELEMENT_SET_NO": 999, "REV_AT_EPOCH": 58231, "BSTAR": 0.00011236, "MEAN_MOTION_DOT": 5.34e-06, "MEAN_MOTION_DDOT": 0}, "tle": {"line1": "1 40376U 15003A   25360.15706615  .00000534  00000+0  11236-3 0  9993", "line2": "2 40376  98.1291   4.6876 0001235  92.6734 267.4609 14.63361123582318"}}, "geometry": {"type": "Point", "coordinates": [-175.16353684616308, -0.6092082934014531]}}, {"type": "Feature", "properties": {"norad_id": 40536, "name": "KOMPSAT-3A", "group": "resource", "lat": -59.36208099680725, "lon": 142.33144109232026, "alt_km": 443.21135214514743, "timestamp": "2025-12-26T09:30:53.285092+00:00", "meta": {"OBJECT_NAME": "KOMPSAT-3A", "OBJECT_ID": "2015-014A", "EPOCH": "2025-12-26T05:22:06.339072", "MEAN_MOTION": 15.4444275, "ECCENTRICITY": 0.0005639, "INCLINATION": 97.6808, "RA_OF_ASC_NODE": 335.3201, "ARG_OF_PERICENTER": 98.2008, "MEAN_ANOMALY": 261.9879, "EPHEMERIS_TYPE": 0, "CLASSIFICATION_TYPE": "U", "NORAD_CAT_ID": 40536, "ELEMENT_SET_NO": 999, "REV_AT_EPOCH": 59503, "BSTAR": 0.00044599, "MEAN_MOTION_DOT": 0.00020578, "MEAN_MOTION_DDOT": 0}, "tle": {"line1": "1 40536U 15014A   25360.22368448  .00020578  00000+0  44599-3 0  9997", "line2": "2 40536  97.6808 335.3201 0005639  98.2008 261.9879 15.44442750595035"}}, "geometry": {"type": "Point", "coordinates": [142.33144109232026, -59.36208099680725]}}, {"type": "Feature", "properties": {"norad_id": 40697, "name": "SENTINEL-2A", "group": "resource", "lat": -69.79738982120135, "lon": -131.46206953631597, "alt_km": 796.9903479713275, "timestamp": "2025-12-26T09:30:53.285102+00:00", "meta": {"OBJECT_NAME": "SENTINEL-2A", "OBJECT_ID": "2015-028A", "EPOCH": "2025-12-26T04:59:08.889792", "MEAN_MOTION": 14.30810214, "ECCENTRICITY": 0.0001036, "INCLINATION": 98.5725, "RA_OF_ASC_NODE": 72.5516, "ARG_OF_PERICENTER": 89.1077, "MEAN_ANOMALY": 271.0224, "EPHEMERIS_TYPE": 0, "CLASSIFICATION_TYPE": "U", "NORAD_CAT_ID": 40697, "ELEMENT_SET_NO": 999, "REV_AT_EPOCH": 54899, "BSTAR": -2.8658e-06, "MEAN_MOTION_DOT": -5.1e-07, "MEAN_MOTION_DDOT": 0}, "tle": {"line1": "1 40697U 15028A   25360.20774178 -.00000051  00000+0 -28658-5 0  9995", "line2": "2 40697  98.5725  72.5516 0001036  89.1077 271.0224 14.30810214548999"}}, "geometry": {"type": "Point", "coordinates": [-131.46206953631597, -69.79738982120135]}}]}